GAOFEN-11 01            
1 43585U 18063A   26197.31129918  .00009786  00000+0  14165-3 0  9991
2 43585  97.1273 264.1218 0003224 195.1803 164.9356 15.56090317444876
ICESAT-2                
1 43613U 18070A   26197.22793467  .00005087  00000+0  18515-3 0  9990
2 43613  92.0096 298.8269 0005574  56.6919 303.4863 15.28187569436895
HYSIS                   
1 43719U 18096A   26197.30976006  .00000346  00000+0  54264-4 0  9991
2 43719  97.9831 263.8274 0001816  83.1047 277.0371 14.78671502411727
KAZSTSAT                
1 43783U 18099AB  26197.05059224  .00000361  00000+0  33574-4 0  9999
2 43783  97.4317 227.6783 0007322 337.5710  22.5193 14.99956264415639
SAUDISAT 5A             
1 43831U 18102A   26197.30292012  .00002677  00000+0  99589-4 0  9990
2 43831  97.3050 258.3253 0010340  40.3423 319.8582 15.28326846420127
SAUDISAT 5B             
1 43833U 18102C   26197.31701350  .00002647  00000+0  97773-4 0  9993
2 43833  97.3160 261.4616 0011118  41.6163 318.5921 15.28570226420247
GAOFEN-10R              
1 44622U 19066A   26197.30082884  .00000491  00000+0  67045-4 0  9997
2 44622  98.0509 151.0941 0006825  50.1017 310.0795 14.83058285366696
CARTOSAT-3              
1 44804U 19081A   26197.26895316  .00001502  00000+0  74512-4 0  9994
2 44804  97.4294 258.6657 0012937  55.6616 304.5841 15.19188030367880
GAOFEN-12 01            
1 44819U 19082A   26197.27746597  .00000149  00000+0  26140-4 0  9998
2 44819  97.8109 202.8902 0000913  55.8069 304.3230 14.80479906358392
CSG-1                   
1 44873U 19092A   26197.28342779  .00000187  00000+0  30059-4 0  9990
2 44873  97.8897  20.4657 0001468  91.1859 268.9523 14.82157319355786
NEMO-HD                 
1 46277U 20061F   26197.27726747  .00005934  00000+0  12708-3 0  9993
2 46277  97.1901 258.9449 0001004 100.7193 259.4170 15.45151656326471
SENTINEL-6A             
1 46984U 20086A   26197.05165486 -.00000036  00000+0  10728-3 0  9997
2 46984  66.0412  75.1016 0007785 269.7329  90.2794 12.80930199264024
CAS500-1                
1 47932U 21022A   26197.28917987  .00002927  00000+0  13846-3 0  9992
2 47932  97.3863  91.9482 0005286 167.3024 192.8345 15.20137510295182
GAOFEN-12 02            
1 48079U 21026A   26197.29165845  .00000136  00000+0  24822-4 0  9995
2 48079  97.9935 195.3552 0005903 129.2874 230.8862 14.80316496286065
PLEIADES NEO 3          
1 48268U 21034A   26197.29210853  .00000224  00000+0  35025-4 0  9999
2 48268  97.8944 271.6400 0001323  95.1532 264.9832 14.81668086281963
PLEIADES NEO 4          
1 49070U 21073E   26197.32586578  .00000404  00000+0  57940-4 0  9998
2 49070  97.8943 271.6692 0001359  93.2948 266.8421 14.81673982265683
LANDSAT 9               
1 49260U 21088A   26197.17523796  .00000158  00000+0  45115-4 0  9998
2 49260  98.2269 266.9999 0001126  88.8173 271.3154 14.57095887255227
CSG-2                   
1 51444U 22008A   26197.31716106 -.00000380  00000+0 -41167-4 0  9995
2 51444  97.8885  20.4925 0001502  86.8504 273.2881 14.82148236240901
GAOFEN-12 03            
1 52912U 22069A   26197.25894287  .00000908  00000+0  12645-3 0  9995
2 52912  97.8245  84.3918 0002442  71.1413 289.0064 14.80078436218919
SWOT                    
1 54754U 22173A   26197.21302572 -.00000011  00000+0 -54421-5 0  9991
2 54754  77.6111 356.1238 0000239  74.2689 285.8489 14.00172427183215
GAOFEN-12 04            
1 57654U 23123A   26197.27885740  .00000425  00000+0  63392-4 0  9991
2 57654  97.9100 114.8617 0003466  48.2439 311.9068 14.79776292156938
PARS 1                  
1 59065U 24039Q   26197.24617622  .00006027  00000+0  12404-3 0  9996
2 59065  97.4840 179.0968 0009647  23.5104 336.6584 15.46302751133130
RESURS-P 4              
1 59371U 24061A   26197.25966259  .00001550  00000+0  52157-4 0  9991
2 59371  97.2760 144.6568 0003232  87.9810 272.1802 15.32283284128219
LEGION 1                
1 59625U 24081A   26197.25457683  .00001818  00000+0  95782-4 0  9999
2 59625  97.5011 274.8033 0007726 265.2677  94.7674 15.16847422121940
LEGION 2                
1 59626U 24081B   26197.21900892  .00001820  00000+0  95906-4 0  9992
2 59626  97.5011 274.8649 0010287 229.6219 130.4117 15.16826330121941
ALOS-4 (DAICHI-4)       
1 60182U 24123A   26197.24065476  .00001668  00000+0  23019-3 0  9996
2 60182  97.9221 293.9995 0001562  96.0526 264.0863 14.79471607110172
LEGION 3                
1 60452U 24146A   26197.19336918  .00001326  00000+0  82208-4 0  9994
2 60452  45.0018 235.0382 0008111 339.4365  20.6186 15.15658436106424
LEGION 4                
1 60453U 24146B   26197.32491250  .00001567  00000+0  94551-4 0  9992
2 60453  45.0028 326.2004 0008986 120.8010 239.3754 15.15685678105291
SENTINEL-2C             
1 60989U 24157A   26197.19353895  .00000045  00000+0  33946-4 0  9996
2 60989  98.5685 271.5638 0000970 103.9825 256.1466 14.30815821 97134
IONOSFERA-M 1           
1 61735U 24199A   26197.23834706  .00000022  00000+0  29504-4 0  9992
2 61735  98.7133  70.0987 0002146  71.4943 288.6468 14.22759269131832
