OBJECT_NAME,OBJECT_ID,EPOCH,MEAN_MOTION,ECCENTRICITY,INCLINATION,RA_OF_ASC_NODE,ARG_OF_PERICENTER,MEAN_ANOMALY,EPHEMERIS_TYPE,CLASSIFICATION_TYPE,NORAD_CAT_ID,ELEMENT_SET_NO,REV_AT_EPOCH,BSTAR,MEAN_MOTION_DOT,MEAN_MOTION_DDOT
GAOFEN-11 01,2018-063A,2026-07-16T07:28:16.249152,15.56090317,.00032248,97.1273,264.1218,195.1803,164.9356,0,U,43585,999,44487,.14165005E-3,.9786E-4,0
ICESAT-2,2018-070A,2026-07-16T05:28:13.555488,15.28187569,.00055747,92.0096,298.8269,56.6919,303.4863,0,U,43613,999,43689,.18514712E-3,.5087E-4,0
HYSIS,2018-096A,2026-07-16T07:26:03.269184,14.78671502,.00018168,97.9831,263.8274,83.1047,277.0371,0,U,43719,999,41172,.54263719E-4,.346E-5,0
KAZSTSAT,2018-099AB,2026-07-16T01:12:51.169536,14.99956264,.0007322,97.4317,227.6783,337.5710,22.5193,0,U,43783,999,41563,.33573966E-4,.361E-5,0
SAUDISAT 5A,2018-102A,2026-07-16T07:16:12.298368,15.28326846,.00103401,97.3050,258.3253,40.3423,319.8582,0,U,43831,999,42012,.9958902E-4,.2677E-4,0
SAUDISAT 5B,2018-102C,2026-07-16T07:36:29.966400,15.28570226,.00111188,97.3160,261.4616,41.6163,318.5921,0,U,43833,999,42024,.97773477E-4,.2647E-4,0
GAOFEN-10R,2019-066A,2026-07-16T07:13:11.611776,14.83058285,.00068254,98.0509,151.0941,50.1017,310.0795,0,U,44622,999,36669,.67044957E-4,.491E-5,0
CARTOSAT-3,2019-081A,2026-07-16T06:27:17.553024,15.19188030,.0012937,97.4294,258.6657,55.6616,304.5841,0,U,44804,999,36788,.74511509E-4,.1502E-4,0
GAOFEN-12 01,2019-082A,2026-07-16T06:39:33.059808,14.80479906,.00009136,97.8109,202.8902,55.8069,304.3230,0,U,44819,999,35839,.26139539E-4,.149E-5,0
CSG-1,2019-092A,2026-07-16T06:48:08.161056,14.82157319,.00014688,97.8897,20.4657,91.1859,268.9523,0,U,44873,999,35578,.30059139E-4,.187E-5,0
NEMO-HD,2020-061F,2026-07-16T06:39:15.909408,15.45151656,.00010047,97.1901,258.9449,100.7193,259.4170,0,U,46277,999,32647,.12707958E-3,.5934E-4,0
SENTINEL-6A,2020-086A,2026-07-16T01:14:22.979904,12.80930199,.00077859,66.0412,75.1016,269.7329,90.2794,0,U,46984,999,26402,.10728445E-3,-.36E-6,0
CAS500-1,2021-022A,2026-07-16T06:56:25.140768,15.20137510,.00052864,97.3863,91.9482,167.3024,192.8345,0,U,47932,999,29518,.13845891E-3,.2927E-4,0
GAOFEN-12 02,2021-026A,2026-07-16T06:59:59.290080,14.80316496,.0005903,97.9935,195.3552,129.2874,230.8862,0,U,48079,999,28606,.24821617E-4,.136E-5,0
PLEIADES NEO 3,2021-034A,2026-07-16T07:00:38.176992,14.81668086,.00013237,97.8944,271.6400,95.1532,264.9832,0,U,48268,999,28196,.35025074E-4,.224E-5,0
PLEIADES NEO 4,2021-073E,2026-07-16T07:49:14.803392,14.81673982,.00013592,97.8943,271.6692,93.2948,266.8421,0,U,49070,999,26568,.57940485E-4,.404E-5,0
LANDSAT 9,2021-088A,2026-07-16T04:12:20.559744,14.57095887,.00011265,98.2269,266.9999,88.8173,271.3154,0,U,49260,999,25522,.45115005E-4,.158E-5,0
CSG-2,2022-008A,2026-07-16T07:36:42.715584,14.82148236,.00015022,97.8885,20.4925,86.8504,273.2881,0,U,51444,999,24090,-.41167404E-4,-.38E-5,0
GAOFEN-12 03,2022-069A,2026-07-16T06:12:52.663968,14.80078436,.00024428,97.8245,84.3918,71.1413,289.0064,0,U,52912,999,21891,.1264527E-3,.908E-5,0
SWOT,2022-173A,2026-07-16T05:06:45.422208,14.00172427,.00002399,77.6111,356.1238,74.2689,285.8489,0,U,54754,999,18321,-.5442147E-5,-.11E-6,0
GAOFEN-12 04,2023-123A,2026-07-16T06:41:33.279360,14.79776292,.00034661,97.9100,114.8617,48.2439,311.9068,0,U,57654,999,15693,.63391897E-4,.425E-5,0
PARS 1,2024-039Q,2026-07-16T05:54:29.625408,15.46302751,.00096471,97.4840,179.0968,23.5104,336.6584,0,U,59065,999,13313,.12403811E-3,.6027E-4,0
RESURS-P 4,2024-061A,2026-07-16T06:13:54.847776,15.32283284,.00032326,97.2760,144.6568,87.9810,272.1802,0,U,59371,999,12821,.52157462E-4,.155E-4,0
LEGION 1,2024-081A,2026-07-16T06:06:35.438112,15.16847422,.0007726,97.5011,274.8033,265.2677,94.7674,0,U,59625,999,12194,.95781917E-4,.1818E-4,0
LEGION 2,2024-081B,2026-07-16T05:15:22.370688,15.16826330,.00102873,97.5011,274.8649,229.6219,130.4117,0,U,59626,999,12194,.95905522E-4,.182E-4,0
ALOS-4 (DAICHI-4),2024-123A,2026-07-16T05:46:32.571264,14.79471607,.0001562,97.9221,293.9995,96.0526,264.0863,0,U,60182,999,11017,.23018894E-3,.1668E-4,0
LEGION 3,2024-146A,2026-07-16T04:38:27.097152,15.15658436,.00081116,45.0018,235.0382,339.4365,20.6186,0,U,60452,999,10642,.82207943E-4,.1326E-4,0
LEGION 4,2024-146B,2026-07-16T07:47:52.440000,15.15685678,.00089861,45.0028,326.2004,120.8010,239.3754,0,U,60453,999,10529,.94550749E-4,.1567E-4,0
SENTINEL-2C,2024-157A,2026-07-16T04:38:41.765280,14.30815821,.00009704,98.5685,271.5638,103.9825,256.1466,0,U,60989,999,9713,.33945914E-4,.45E-6,0
IONOSFERA-M 1,2024-199A,2026-07-16T05:43:13.185984,14.22759269,.0002146,98.7133,70.0987,71.4943,288.6468,0,U,61735,999,13183,.29504042E-4,.22E-6,0
